STARLINK-3313           
1 50157U 21125B   22296.31901712  .00002487  00000+0  17426-3 0  9997
2 50157  53.2177  35.9329 0002380  33.6979 326.4164 15.08850477 47176
STARLINK-3309           
1 50158U 21125C   22296.10925785  .00000327  00000+0  38647-4 0  9991
2 50158  53.2186  36.8860 0001612  47.5204 312.5925 15.08840627 47143
STARLINK-3297           
1 50159U 21125D   22296.10556716  .00001767  00000+0  12909-3 0  9997
2 50159  53.2172  36.8918 0002190  34.7631 325.3503 15.08850021 46688
STARLINK-3288           
1 50160U 21125E   22296.44413380  .00004219  00000+0  28292-3 0  9992
2 50160  53.2181  35.3830 0002236  29.2724 330.8393 15.08853325 49793
STARLINK-3304           
1 50161U 21125F   22296.44780964  .00002561  00000+0  17889-3 0  9996
2 50161  53.2195  35.3561 0002517  30.8708 329.2432 15.08850955 49794
STARLINK-3303           
1 50162U 21125G   22295.41171536 -.00465754  00000+0 -77025-2 0  9998
2 50162  53.1969 269.9338 0001691  63.6392 296.4793 15.53255349 51980
STARLINK-3306           
1 50163U 21125H   22296.03477025  .00001295  00000+0  99455-4 0  9997
2 50163  53.2193  17.2094 0002268  35.1455 324.9687 15.08847795 50013
STARLINK-3298           
1 50165U 21125K   22296.23436803 -.00000644  00000+0 -22352-4 0  9991
2 50165  53.2188  36.3280 0002017  41.4982 318.6163 15.08847922 47168
STARLINK-3305           
1 50166U 21125L   22296.52233141  .00003285  00000+0  22427-3 0  9998
2 50166  53.2198  25.0214 0002345  32.0232 328.0903 15.08859543 47349
STARLINK-3271           
1 50167U 21125M   22296.49196467  .00001771  00000+0  12928-3 0  9997
2 50167  53.2182  35.1760 0002034  52.1328 307.9848 15.08853623 49805
STARLINK-3296           
1 50168U 21125N   22296.51865227  .00003302  00000+0  22539-3 0  9999
2 50168  53.2190  25.0389 0002329  31.2039 328.9091 15.08856164 47336
STARLINK-3301           
1 50169U 21125P   22296.55544314  .00002770  00000+0  19196-3 0  9998
2 50169  53.2173  24.8814 0002427  28.6110 331.5015 15.08859898 47352
STARLINK-3245           
1 50170U 21125Q   22295.98137743  .00001326  00000+0  10139-3 0  9994
2 50170  53.2198  27.4550 0002455  28.7931 331.3196 15.08844974 49865
STARLINK-3286           
1 50171U 21125R   22296.52601124  .00001336  00000+0  10202-3 0  9997
2 50171  53.2197  25.0160 0002281  35.3484 324.7659 15.08855789 49945
STARLINK-3287           
1 50172U 21125S   22296.23897122  .00001160  00000+0  90947-4 0  9991
2 50172  53.2181  26.3083 0002052  37.2088 322.9046 15.08849799 49904
STARLINK-3289           
1 50173U 21125T   22296.46532717  .00001176  00000+0  91932-4 0  9995
2 50173  53.2181  15.2920 0001698  52.5624 307.5522 15.08844391 47485
STARLINK-3292           
1 50174U 21125U   22296.29417690  .00001326  00000+0  10137-3 0  9993
2 50174  53.2215  26.0671 0002135  45.6535 314.4632 15.08844014 49919
STARLINK-3291           
1 50175U 21125V   22296.51498268  .00008381  00000+0  54410-3 0  9999
2 50175  53.2190  25.0601 0002329  18.1735 341.9340 15.08837943 49943
STARLINK-3293           
1 50176U 21125W   22296.29785366  .00002448  00000+0  17181-3 0  9995
2 50176  53.2176  26.0471 0002589  30.5468 329.5675 15.08850567 47312
STARLINK-3282           
1 50177U 21125X   22296.50761293  .00000942  00000+0  77260-4 0  9995
2 50177  53.2185  25.1010 0002311  29.7015 330.4108 15.08850211 49942
STARLINK-3284           
1 50178U 21125Y   22296.53336290  .00001958  00000+0  14106-3 0  9991
2 50178  53.2183  24.9652 0002177  40.4580 319.6573 15.08849641 49947
STARLINK-3283           
1 50179U 21125Z   22296.50024998  .00002058  00000+0  14731-3 0  9994
2 50179  53.2190  25.1336 0002592  31.5633 328.5514 15.08852389 49946
STARLINK-3265           
1 50180U 21125AA  22296.48552568  .00002030  00000+0  14556-3 0  9997
2 50180  53.2181  25.1972 0002055  35.7646 324.3483 15.08853900 47349
STARLINK-3285           
1 50181U 21125AB  22296.47817478  .00006690  00000+0  43824-3 0  9997
2 50181  53.2200  25.2362 0002253  30.9014 329.2111 15.08823378 49948
STARLINK-3277           
1 50182U 21125AC  22296.27209362  .00000670  00000+0  60194-4 0  9995
2 50182  53.2172  26.1651 0002650  29.8528 330.2615 15.08845778 49912
STARLINK-3281           
1 50183U 21125AD  22296.27577687  .00006630  00000+0  43408-3 0  9994
2 50183  53.2165  26.1472 0001992  32.0418 328.0694 15.08854928 47319
STARLINK-3279           
1 50185U 21125AF  22296.28313626  .00000847  00000+0  71351-4 0  9991
2 50185  53.2170  26.1039 0002289  31.7056 328.4073 15.08840955 49929
STARLINK-3274           
1 50186U 21125AG  22296.29692628  .00001696  00000+0  12462-3 0  9995
2 50186  53.2196  36.0372 0002298  37.8592 322.2561 15.08850310 49773
STARLINK-3272           
1 50187U 21125AH  22296.25829522  .00004075  00000+0  27394-3 0  9991
2 50187  53.2177  16.2039 0001689  40.5928 319.5190 15.08844810 47436
STARLINK-3275           
1 50188U 21125AJ  22296.52694062  .00003984  00000+0  26827-3 0  9999
2 50188  53.2181  14.9927 0002538  37.0380 323.0787 15.08837766 47478
STARLINK-3276           
1 50189U 21125AK  22296.46344534  .00002075  00000+0  14840-3 0  9991
2 50189  53.2205  25.2931 0002111  32.5498 327.5624 15.08847876 49949
STARLINK-3268           
1 50190U 21125AL  22296.24726371  .00004754  00000+0  31646-3 0  9991
2 50190  53.2191  16.2677 0002414  28.4353 331.6771 15.08857424 50044
STARLINK-3273           
1 50191U 21125AM  22295.79277952  .00000866  00000+0  72476-4 0  9994
2 50191  53.2191  38.2925 0002239  35.8470 324.2672 15.08845080 50179
STARLINK-3259           
1 50192U 21125AN  22296.24357116  .00000503  00000+0  49683-4 0  9999
2 50192  53.2196  16.2794 0002133  31.9886 328.1235 15.08848674 47431
STARLINK-3261           
1 50193U 21125AP  22296.45333171  .00001882  00000+0  13630-3 0  9991
2 50193  53.2204  15.3381 0002516  32.0623 328.0522 15.08845772 50078
STARLINK-3269           
1 50194U 21125AQ  22296.50485154  .00004069  00000+0  27349-3 0  9999
2 50194  53.2193  15.1052 0002325  32.9715 327.1422 15.08852354 50082
STARLINK-3266           
1 50195U 21125AR  22296.25093529  .00002285  00000+0  16160-3 0  9990
2 50195  53.2186  16.2499 0001964  38.0981 322.0150 15.08850948 50047
STARLINK-3263           
1 50196U 21125AS  22296.49749134  .00006686  00000+0  43752-3 0  9993
2 50196  53.2175  15.1496 0002503  27.6499 332.4626 15.08862551 50089
STARLINK-3267           
1 50197U 21125AT  22296.50117247  .00008324  00000+0  54014-3 0  9994
2 50197  53.2175  15.1311 0002206  36.6351 323.4791 15.08863652 50089
STARLINK-3264           
1 50198U 21125AU  22296.22149328  .00002068  00000+0  14798-3 0  9993
2 50198  53.2177  16.3820 0002041  38.3576 321.7561 15.08852264 50044
STARLINK-3270           
1 50199U 21125AV  22296.13686151  .00004349  00000+0  29112-3 0  9994
2 50199  53.2186  16.7514 0002514  30.4891 329.6247 15.08850668 50029
STARLINK-3235           
1 50200U 21125AW  22296.03012929  .00002435  00000+0  17102-3 0  9992
2 50200  53.2179  17.2424 0002533  29.0424 331.0708 15.08845888 50013
STARLINK-3255           
1 50201U 21125AX  22296.48276554 -.00006222  00000+0 -37268-3 0  9993
2 50201  53.2185  15.2138 0002296  22.6931 337.4162 15.08882277 50083
STARLINK-3256           
1 50202U 21125AY  22295.47078457  .00000218  00000+0  31832-4 0  9993
2 50202  53.2180  19.7363 0002401  29.3206 330.7920 15.08837978 50407
STARLINK-3257           
1 50203U 21125AZ  22296.02645999  .00000601  00000+0  55900-4 0  9995
2 50203  53.2192  17.2643 0002518  27.1842 332.9281 15.08845640 47412
STARLINK-3254           
1 50204U 21125BA  22296.47173637  .00002863  00000+0  19789-3 0  9996
2 50204  53.2170  15.2665 0002386  33.1214 326.9927 15.08849102 47488
STARLINK-3260           
1 50205U 21125BB  22296.47913391  .00006891  00000+0  45039-3 0  9998
2 50205  53.2184 345.2193 0002664  31.7098 328.4055 15.08860138 50518
STARLINK-3258           
1 50206U 21125BC  22295.74678332  .00000501  00000+0  49599-4 0  9999
2 50206  53.2191  18.5170 0002672  25.1405 334.9717 15.08841285 48370
STARLINK-3262           
1 50207U 21125BD  22296.21413697  .00003366  00000+0  22944-3 0  9990
2 50207  53.2160  16.4234 0002566  29.2306 330.8829 15.08848380 48510
STARLINK-3321           
1 50803U 22001A   22296.33097870  .00000920  00000+0  75887-4 0  9998
2 50803  53.2179 305.8831 0002732  32.8046 327.3116 15.08848521 45486
STARLINK-3323           
1 50804U 22001B   22296.36502105 -.00000432  00000+0 -90033-5 0  9995
2 50804  53.2167 295.7413 0002098  40.3128 319.8019 15.08851583 45601
STARLINK-3333           
1 50805U 22001C   22296.42757819  .00001215  00000+0  94417-4 0  9994
2 50805  53.2186 295.4577 0002129  36.6896 323.4242 15.08840785 45630
STARLINK-3335           
1 50806U 22001D   22296.22517655  .00000394  00000+0  42882-4 0  9991
2 50806  53.2176 296.3485 0002539  43.2882 316.8309 15.08843534 45604
STARLINK-3353           
1 50807U 22001E   22295.74677674  .00000086  00000+0  23516-4 0  9997
2 50807  53.2168 298.5231 0002248  45.1723 314.9452 15.08849590 44268
STARLINK-3355           
1 50808U 22001F   22296.41653879  .00000721  00000+0  63409-4 0  9995
2 50808  53.2177 295.5007 0002283  39.2364 320.8794 15.08850157 45617
STARLINK-3232           
1 50809U 22001G   22296.15525354  .00001232  00000+0  95484-4 0  9999
2 50809  53.2181 296.6768 0002124  38.0980 322.0162 15.08839493 45606
STARLINK-3348           
1 50810U 22001H   22296.14789540  .00000549  00000+0  52621-4 0  9995
2 50810  53.2153 296.7211 0002309  37.8680 322.2474 15.08846062 45574
STARLINK-3347           
1 50811U 22001J   22296.47173581  .00005029  00000+0  33370-3 0  9991
2 50811  53.2146 295.2642 0003027  31.4395 328.6777 15.08857451 45659
STARLINK-3338           
1 50812U 22001K   22295.70726068  .00000704  00000+0  62317-4 0  9990
2 50812  53.2166 298.6770 0002422  43.1102 317.0080 15.08850716 44256
STARLINK-3349           
1 50813U 22001L   22296.13781021  .00002786  00000+0  19301-3 0  9995
2 50813  53.2151 296.7638 0002108  49.5705 310.5471 15.08854161 45579
